{
  "type": "FeatureCollection",
  "features": [
    {
      "type": "Feature",
      "properties": {
        "norad_id": 34434,
        "name": "COSMOS 2251 DEB",
        "group": "cosmos-2251-debris",
        "lat": 4.546293941796588,
        "lon": 177.40903570510963,
        "alt_km": 777.0549722843034,
        "timestamp": "2025-12-19T10:50:01.595996+00:00",
        "meta_object_name": "COSMOS 2251 DEB",
        "meta_object_id": "1993-036SB",
        "meta_epoch": "2025-12-18T20:31:30.487872",
        "meta_mean_motion": 13.89845952,
        "meta_eccentricity": 0.02740581,
        "meta_inclination": 74.0627,
        "meta_ra_of_asc_node": 359.7246,
        "meta_arg_of_pericenter": 135.5717,
        "meta_mean_anomaly": 295.697,
        "meta_ephemeris_type": 0,
        "meta_classification_type": "U",
        "meta_norad_cat_id": 34434,
        "meta_element_set_no": 999,
        "meta_rev_at_epoch": 84051,
        "meta_bstar": 0.0016988637,
        "meta_mean_motion_dot": 2.806e-05,
        "meta_mean_motion_ddot": 0,
        "tle_line1": "1 34434U 93036SB  25352.85521398  .00002806  00000+0  16989-2 0  9997",
        "tle_line2": "2 34434  74.0627 359.7246 0274058 135.5717 295.6970 13.89845952840517"
      },
      "geometry": {
        "type": "Point",
        "coordinates": [
          177.40903570510963,
          4.546293941796588
        ]
      }
    },
    {
      "type": "Feature",
      "properties": {
        "norad_id": 34446,
        "name": "COSMOS 2251 DEB",
        "group": "cosmos-2251-debris",
        "lat": -3.3458442321226363,
        "lon": 43.73736001678144,
        "alt_km": 766.8230046518602,
        "timestamp": "2025-12-19T10:50:01.596006+00:00",
        "meta_object_name": "COSMOS 2251 DEB",
        "meta_object_id": "1993-036SP",
        "meta_epoch": "2025-12-18T19:56:26.470752",
        "meta_mean_motion": 14.49359639,
        "meta_eccentricity": 0.00508553,
        "meta_inclination": 74.0419,
        "meta_ra_of_asc_node": 45.8591,
        "meta_arg_of_pericenter": 182.462,
        "meta_mean_anomaly": 177.6298,
        "meta_ephemeris_type": 0,
        "meta_classification_type": "U",
        "meta_norad_cat_id": 34446,
        "meta_element_set_no": 999,
        "meta_rev_at_epoch": 88782,
        "meta_bstar": 9.725259e-05,
        "meta_mean_motion_dot": 3.49e-06,
        "meta_mean_motion_ddot": 0,
        "tle_line1": "1 34446U 93036SP  25352.83086193  .00000349  00000+0  97253-4 0  9992",
        "tle_line2": "2 34446  74.0419  45.8591 0050855 182.4620 177.6298 14.49359639887822"
      },
      "geometry": {
        "type": "Point",
        "coordinates": [
          43.73736001678144,
          -3.3458442321226363
        ]
      }
    },
    {
      "type": "Feature",
      "properties": {
        "norad_id": 34449,
        "name": "COSMOS 2251 DEB",
        "group": "cosmos-2251-debris",
        "lat": 11.661473191522196,
        "lon": -126.36826670185884,
        "alt_km": 577.7247678315025,
        "timestamp": "2025-12-19T10:50:01.596016+00:00",
        "meta_object_name": "COSMOS 2251 DEB",
        "meta_object_id": "1993-036SS",
        "meta_epoch": "2025-12-18T05:26:44.166912",
        "meta_mean_motion": 14.95183894,
        "meta_eccentricity": 0.00227497,
        "meta_inclination": 74.0329,
        "meta_ra_of_asc_node": 59.489,
        "meta_arg_of_pericenter": 98.5839,
        "meta_mean_anomaly": 320.4746,
        "meta_ephemeris_type": 0,
        "meta_classification_type": "U",
        "meta_norad_cat_id": 34449,
        "meta_element_set_no": 999,
        "meta_rev_at_epoch": 88775,
        "meta_bstar": 0.0022027298,
        "meta_mean_motion_dot": 0.00024375,
        "meta_mean_motion_ddot": 0,
        "tle_line1": "1 34449U 93036SS  25352.22690008  .00024375  00000+0  22027-2 0  9994",
        "tle_line2": "2 34449  74.0329  59.4890 0022749  98.5839 320.4746 14.95183894887755"
      },
      "geometry": {
        "type": "Point",
        "coordinates": [
          -126.36826670185884,
          11.661473191522196
        ]
      }
    },
    {
      "type": "Feature",
      "properties": {
        "norad_id": 34451,
        "name": "COSMOS 2251 DEB",
        "group": "cosmos-2251-debris",
        "lat": 23.290859931510298,
        "lon": -112.74608801427146,
        "alt_km": 571.7298438341768,
        "timestamp": "2025-12-19T10:50:01.596026+00:00",
        "meta_object_name": "COSMOS 2251 DEB",
        "meta_object_id": "1993-036SU",
        "meta_epoch": "2025-12-18T08:27:43.574688",
        "meta_mean_motion": 14.95892604,
        "meta_eccentricity": 0.00238753,
        "meta_inclination": 74.0467,
        "meta_ra_of_asc_node": 76.544,
        "meta_arg_of_pericenter": 92.6871,
        "meta_mean_anomaly": 267.7047,
        "meta_ephemeris_type": 0,
        "meta_classification_type": "U",
        "meta_norad_cat_id": 34451,
        "meta_element_set_no": 999,
        "meta_rev_at_epoch": 88719,
        "meta_bstar": 0.0022229061,
        "meta_mean_motion_dot": 0.00025065,
        "meta_mean_motion_ddot": 0,
        "tle_line1": "1 34451U 93036SU  25352.35258767  .00025065  00000+0  22229-2 0  9994",
        "tle_line2": "2 34451  74.0467  76.5440 0023875  92.6871 267.7047 14.95892604887195"
      },
      "geometry": {
        "type": "Point",
        "coordinates": [
          -112.74608801427146,
          23.290859931510298
        ]
      }
    },
    {
      "type": "Feature",
      "properties": {
        "norad_id": 34452,
        "name": "COSMOS 2251 DEB",
        "group": "cosmos-2251-debris",
        "lat": -73.93174479657863,
        "lon": 85.16186891050512,
        "alt_km": 497.6196399366154,
        "timestamp": "2025-12-19T10:50:01.596037+00:00",
        "meta_object_name": "COSMOS 2251 DEB",
        "meta_object_id": "1993-036SV",
        "meta_epoch": "2025-12-18T23:05:13.280928",
        "meta_mean_motion": 15.11837942,
        "meta_eccentricity": 0.00652799,
        "meta_inclination": 74.0324,
        "meta_ra_of_asc_node": 169.9406,
        "meta_arg_of_pericenter": 244.9007,
        "meta_mean_anomaly": 243.7353,
        "meta_ephemeris_type": 0,
        "meta_classification_type": "U",
        "meta_norad_cat_id": 34452,
        "meta_element_set_no": 999,
        "meta_rev_at_epoch": 90756,
        "meta_bstar": 0.00064720585,
        "meta_mean_motion_dot": 0.00011622,
        "meta_mean_motion_ddot": 0,
        "tle_line1": "1 34452U 93036SV  25352.96195927  .00011622  00000+0  64721-3 0  9998",
        "tle_line2": "2 34452  74.0324 169.9406 0065279 244.9007 243.7353 15.11837942907565"
      },
      "geometry": {
        "type": "Point",
        "coordinates": [
          85.16186891050512,
          -73.93174479657863
        ]
      }
    },
    {
      "type": "Feature",
      "properties": {
        "norad_id": 34454,
        "name": "COSMOS 2251 DEB",
        "group": "cosmos-2251-debris",
        "lat": -15.008482816086781,
        "lon": -99.11759090960899,
        "alt_km": 742.4377310682248,
        "timestamp": "2025-12-19T10:50:01.596047+00:00",
        "meta_object_name": "COSMOS 2251 DEB",
        "meta_object_id": "1993-036SX",
        "meta_epoch": "2025-12-18T21:33:21.969216",
        "meta_mean_motion": 14.38818379,
        "meta_eccentricity": 0.00357837,
        "meta_inclination": 74.0588,
        "meta_ra_of_asc_node": 266.2958,
        "meta_arg_of_pericenter": 327.6404,
        "meta_mean_anomaly": 32.2555,
        "meta_ephemeris_type": 0,
        "meta_classification_type": "U",
        "meta_norad_cat_id": 34454,
        "meta_element_set_no": 999,
        "meta_rev_at_epoch": 88156,
        "meta_bstar": 0.00018946663,
        "meta_mean_motion_dot": 5.61e-06,
        "meta_mean_motion_ddot": 0,
        "tle_line1": "1 34454U 93036SX  25352.89817094  .00000561  00000+0  18947-3 0  9997",
        "tle_line2": "2 34454  74.0588 266.2958 0035783 327.6404  32.2555 14.38818379881566"
      },
      "geometry": {
        "type": "Point",
        "coordinates": [
          -99.11759090960899,
          -15.008482816086781
        ]
      }
    },
    {
      "type": "Feature",
      "properties": {
        "norad_id": 34459,
        "name": "COSMOS 2251 DEB",
        "group": "cosmos-2251-debris",
        "lat": 40.42348025525197,
        "lon": 48.37773752149537,
        "alt_km": 1027.1429117010912,
        "timestamp": "2025-12-19T10:50:01.596057+00:00",
        "meta_object_name": "COSMOS 2251 DEB",
        "meta_object_id": "1993-036TC",
        "meta_epoch": "2025-12-18T18:44:29.314176",
        "meta_mean_motion": 14.00509346,
        "meta_eccentricity": 0.01921117,
        "meta_inclination": 74.0788,
        "meta_ra_of_asc_node": 243.6074,
        "meta_arg_of_pericenter": 312.0321,
        "meta_mean_anomaly": 46.4595,
        "meta_ephemeris_type": 0,
        "meta_classification_type": "U",
        "meta_norad_cat_id": 34459,
        "meta_element_set_no": 999,
        "meta_rev_at_epoch": 85796,
        "meta_bstar": 0.00029265822,
        "meta_mean_motion_dot": 4.85e-06,
        "meta_mean_motion_ddot": 0,
        "tle_line1": "1 34459U 93036TC  25352.78089484  .00000485  00000+0  29266-3 0  9995",
        "tle_line2": "2 34459  74.0788 243.6074 0192111 312.0321  46.4595 14.00509346857964"
      },
      "geometry": {
        "type": "Point",
        "coordinates": [
          48.37773752149537,
          40.42348025525197
        ]
      }
    }
  ]
}